{"fetched_at":"2026-07-18T17:29:27.823Z","source":"https://celestrak.org/NORAD/elements/gp.php?GROUP=iridium-NEXT&FORMAT=JSON","constellation":"iridium","records":[{"OBJECT_NAME":"IRIDIUM 150","OBJECT_ID":"2018-030J","EPOCH":"2026-07-18T04:40:59.369376","CLASSIFICATION_TYPE":"U","MEAN_MOTION":14.34217578,"ECCENTRICITY":0.00023041,"INCLINATION":86.3957,"RA_OF_ASC_NODE":277.5022,"ARG_OF_PERICENTER":96.3242,"MEAN_ANOMALY":263.8216,"EPHEMERIS_TYPE":0,"NORAD_CAT_ID":43257,"ELEMENT_SET_NO":999,"REV_AT_EPOCH":43460,"BSTAR":0.000037798757,"MEAN_MOTION_DOT":0.00000126,"MEAN_MOTION_DDOT":0},{"OBJECT_NAME":"IRIDIUM 143","OBJECT_ID":"2018-030K","EPOCH":"2026-07-18T04:13:35.492736","CLASSIFICATION_TYPE":"U","MEAN_MOTION":14.34218072,"ECCENTRICITY":0.00023731,"INCLINATION":86.396,"RA_OF_ASC_NODE":277.604,"ARG_OF_PERICENTER":96.8677,"MEAN_ANOMALY":263.2788,"EPHEMERIS_TYPE":0,"NORAD_CAT_ID":43258,"ELEMENT_SET_NO":999,"REV_AT_EPOCH":43453,"BSTAR":0.000025209343,"MEAN_MOTION_DOT":9e-7,"MEAN_MOTION_DDOT":0},{"OBJECT_NAME":"IRIDIUM 161","OBJECT_ID":"2018-047C","EPOCH":"2026-07-18T03:50:13.647552","CLASSIFICATION_TYPE":"U","MEAN_MOTION":14.43276571,"ECCENTRICITY":0.00022068,"INCLINATION":86.4458,"RA_OF_ASC_NODE":75.5179,"ARG_OF_PERICENTER":80.7176,"MEAN_ANOMALY":279.4274,"EPHEMERIS_TYPE":0,"NORAD_CAT_ID":43478,"ELEMENT_SET_NO":999,"REV_AT_EPOCH":42960,"BSTAR":0.000038959728,"MEAN_MOTION_DOT":0.00000151,"MEAN_MOTION_DDOT":0},{"OBJECT_NAME":"IRIDIUM 152","OBJECT_ID":"2018-047D","EPOCH":"2026-07-18T03:34:18.245856","CLASSIFICATION_TYPE":"U","MEAN_MOTION":14.3421765,"ECCENTRICITY":0.00020168,"INCLINATION":86.3932,"RA_OF_ASC_NODE":75.3835,"ARG_OF_PERICENTER":83.4317,"MEAN_ANOMALY":276.7109,"EPHEMERIS_TYPE":0,"NORAD_CAT_ID":43479,"ELEMENT_SET_NO":999,"REV_AT_EPOCH":42692,"BSTAR":-0.00004805855,"MEAN_MOTION_DOT":-0.00000115,"MEAN_MOTION_DDOT":0},{"OBJECT_NAME":"IRIDIUM 147","OBJECT_ID":"2018-047E","EPOCH":"2026-07-18T03:43:26.275872","CLASSIFICATION_TYPE":"U","MEAN_MOTION":14.34217576,"ECCENTRICITY":0.00022915,"INCLINATION":86.3935,"RA_OF_ASC_NODE":75.3868,"ARG_OF_PERICENTER":88.2487,"MEAN_ANOMALY":271.8972,"EPHEMERIS_TYPE":0,"NORAD_CAT_ID":43480,"ELEMENT_SET_NO":999,"REV_AT_EPOCH":42692,"BSTAR":0.000015504344,"MEAN_MOTION_DOT":6.3e-7,"MEAN_MOTION_DDOT":0},{"OBJECT_NAME":"IRIDIUM 110","OBJECT_ID":"2018-047F","EPOCH":"2026-07-18T03:52:33.953376","CLASSIFICATION_TYPE":"U","MEAN_MOTION":14.34219246,"ECCENTRICITY":0.00020586,"INCLINATION":86.3938,"RA_OF_ASC_NODE":75.4769,"ARG_OF_PERICENTER":77.7059,"MEAN_ANOMALY":282.4367,"EPHEMERIS_TYPE":0,"NORAD_CAT_ID":43481,"ELEMENT_SET_NO":999,"REV_AT_EPOCH":42691,"BSTAR":0.000038172665,"MEAN_MOTION_DOT":0.00000127,"MEAN_MOTION_DDOT":0},{"OBJECT_NAME":"IRIDIUM 162","OBJECT_ID":"2018-047G","EPOCH":"2026-07-18T03:41:09.291264","CLASSIFICATION_TYPE":"U","MEAN_MOTION":14.43279383,"ECCENTRICITY":0.00021963,"INCLINATION":86.4457,"RA_OF_ASC_NODE":75.411,"ARG_OF_PERICENTER":87.0114,"MEAN_ANOMALY":273.1338,"EPHEMERIS_TYPE":0,"NORAD_CAT_ID":43482,"ELEMENT_SET_NO":999,"REV_AT_EPOCH":42959,"BSTAR":0.000044093483,"MEAN_MOTION_DOT":0.00000169,"MEAN_MOTION_DDOT":0},{"OBJECT_NAME":"IRIDIUM 160","OBJECT_ID":"2018-061A","EPOCH":"2026-07-18T02:34:34.430880","CLASSIFICATION_TYPE":"U","MEAN_MOTION":14.34217724,"ECCENTRICITY":0.00022179,"INCLINATION":86.3939,"RA_OF_ASC_NODE":43.8632,"ARG_OF_PERICENTER":86.7202,"MEAN_ANOMALY":273.4247,"EPHEMERIS_TYPE":0,"NORAD_CAT_ID":43569,"ELEMENT_SET_NO":999,"REV_AT_EPOCH":41780,"BSTAR":0.000034046386,"MEAN_MOTION_DOT":0.00000115,"MEAN_MOTION_DDOT":0},{"OBJECT_NAME":"IRIDIUM 166","OBJECT_ID":"2018-061B","EPOCH":"2026-07-18T01:30:38.492928","CLASSIFICATION_TYPE":"U","MEAN_MOTION":14.34217676,"ECCENTRICITY":0.0002284,"INCLINATION":86.3937,"RA_OF_ASC_NODE":43.8319,"ARG_OF_PERICENTER":89.7406,"MEAN_ANOMALY":270.4052,"EPHEMERIS_TYPE":0,"NORAD_CAT_ID":43570,"ELEMENT_SET_NO":999,"REV_AT_EPOCH":41782,"BSTAR":-6.22224e-7,"MEAN_MOTION_DOT":1.8e-7,"MEAN_MOTION_DDOT":0},{"OBJECT_NAME":"IRIDIUM 158","OBJECT_ID":"2018-061C","EPOCH":"2026-07-18T00:44:58.431840","CLASSIFICATION_TYPE":"U","MEAN_MOTION":14.34217842,"ECCENTRICITY":0.00021067,"INCLINATION":86.3938,"RA_OF_ASC_NODE":43.8546,"ARG_OF_PERICENTER":88.5076,"MEAN_ANOMALY":271.6361,"EPHEMERIS_TYPE":0,"NORAD_CAT_ID":43571,"ELEMENT_SET_NO":999,"REV_AT_EPOCH":41778,"BSTAR":0.000006470522,"MEAN_MOTION_DOT":3.8e-7,"MEAN_MOTION_DDOT":0},{"OBJECT_NAME":"IRIDIUM 165","OBJECT_ID":"2018-061D","EPOCH":"2026-07-18T03:01:58.544256","CLASSIFICATION_TYPE":"U","MEAN_MOTION":14.34217667,"ECCENTRICITY":0.00022838,"INCLINATION":86.3941,"RA_OF_ASC_NODE":43.8625,"ARG_OF_PERICENTER":90.1141,"MEAN_ANOMALY":270.0316,"EPHEMERIS_TYPE":0,"NORAD_CAT_ID":43572,"ELEMENT_SET_NO":999,"REV_AT_EPOCH":41782,"BSTAR":0.000013566105,"MEAN_MOTION_DOT":5.8e-7,"MEAN_MOTION_DDOT":0},{"OBJECT_NAME":"IRIDIUM 155","OBJECT_ID":"2018-061E","EPOCH":"2026-07-18T02:07:10.474752","CLASSIFICATION_TYPE":"U","MEAN_MOTION":14.34217546,"ECCENTRICITY":0.00021437,"INCLINATION":86.3936,"RA_OF_ASC_NODE":43.7455,"ARG_OF_PERICENTER":90.7984,"MEAN_ANOMALY":269.3457,"EPHEMERIS_TYPE":0,"NORAD_CAT_ID":43573,"ELEMENT_SET_NO":999,"REV_AT_EPOCH":41778,"BSTAR":0.000001368932,"MEAN_MOTION_DOT":2.4e-7,"MEAN_MOTION_DDOT":0},{"OBJECT_NAME":"IRIDIUM 154","OBJECT_ID":"2018-061F","EPOCH":"2026-07-18T06:41:10.476672","CLASSIFICATION_TYPE":"U","MEAN_MOTION":14.34217461,"ECCENTRICITY":0.00023075,"INCLINATION":86.3939,"RA_OF_ASC_NODE":43.8012,"ARG_OF_PERICENTER":89.7275,"MEAN_ANOMALY":270.4186,"EPHEMERIS_TYPE":0,"NORAD_CAT_ID":43574,"ELEMENT_SET_NO":999,"REV_AT_EPOCH":41786,"BSTAR":2.2341e-7,"MEAN_MOTION_DOT":2e-7,"MEAN_MOTION_DDOT":0},{"OBJECT_NAME":"IRIDIUM 163","OBJECT_ID":"2018-061G","EPOCH":"2026-07-18T02:52:50.531520","CLASSIFICATION_TYPE":"U","MEAN_MOTION":14.34217381,"ECCENTRICITY":0.0002124,"INCLINATION":86.3937,"RA_OF_ASC_NODE":43.7818,"ARG_OF_PERICENTER":86.8282,"MEAN_ANOMALY":273.3157,"EPHEMERIS_TYPE":0,"NORAD_CAT_ID":43575,"ELEMENT_SET_NO":999,"REV_AT_EPOCH":41781,"BSTAR":0.00000268892,"MEAN_MOTION_DOT":2.7e-7,"MEAN_MOTION_DDOT":0},{"OBJECT_NAME":"IRIDIUM 156","OBJECT_ID":"2018-061H","EPOCH":"2026-07-18T02:16:18.359616","CLASSIFICATION_TYPE":"U","MEAN_MOTION":14.34218395,"ECCENTRICITY":0.00021147,"INCLINATION":86.3937,"RA_OF_ASC_NODE":43.7996,"ARG_OF_PERICENTER":93.5976,"MEAN_ANOMALY":266.5462,"EPHEMERIS_TYPE":0,"NORAD_CAT_ID":43576,"ELEMENT_SET_NO":999,"REV_AT_EPOCH":41780,"BSTAR":0.000024059446,"MEAN_MOTION_DOT":8.7e-7,"MEAN_MOTION_DDOT":0},{"OBJECT_NAME":"IRIDIUM 164","OBJECT_ID":"2018-061J","EPOCH":"2026-07-18T01:48:54.485568","CLASSIFICATION_TYPE":"U","MEAN_MOTION":14.34218343,"ECCENTRICITY":0.00023641,"INCLINATION":86.3938,"RA_OF_ASC_NODE":43.8487,"ARG_OF_PERICENTER":89.2647,"MEAN_ANOMALY":270.882,"EPHEMERIS_TYPE":0,"NORAD_CAT_ID":43577,"ELEMENT_SET_NO":999,"REV_AT_EPOCH":41784,"BSTAR":0.000013904332,"MEAN_MOTION_DOT":5.9e-7,"MEAN_MOTION_DDOT":0}]}
