IRIDIUM 150             
1 43257U 18030J   26199.19513159  .00000126  00000+0  37799-4 0  9991
2 43257  86.3957 277.5022 0002304  96.3242 263.8216 14.34217578434608
IRIDIUM 143             
1 43258U 18030K   26199.17610524  .00000090  00000+0  25209-4 0  9997
2 43258  86.3960 277.6040 0002373  96.8677 263.2788 14.34218072434537
IRIDIUM 161             
1 43478U 18047C   26199.15988018  .00000151  00000+0  38960-4 0  9999
2 43478  86.4458  75.5179 0002206  80.7176 279.4274 14.43276571429602
IRIDIUM 152             
1 43479U 18047D   26199.14882229 -.00000115  00000+0 -48059-4 0  9998
2 43479  86.3932  75.3835 0002016  83.4317 276.7109 14.34217650426924
IRIDIUM 147             
1 43480U 18047E   26199.15516523  .00000063  00000+0  15504-4 0  9991
2 43480  86.3935  75.3868 0002291  88.2487 271.8972 14.34217576426922
IRIDIUM 110             
1 43481U 18047F   26199.16150409  .00000127  00000+0  38173-4 0  9998
2 43481  86.3938  75.4769 0002058  77.7059 282.4367 14.34219246426917
IRIDIUM 162             
1 43482U 18047G   26199.15357976  .00000169  00000+0  44093-4 0  9990
2 43482  86.4457  75.4110 0002196  87.0114 273.1338 14.43279383429594
IRIDIUM 160             
1 43569U 18061A   26199.10734295  .00000115  00000+0  34046-4 0  9998
2 43569  86.3939  43.8632 0002217  86.7202 273.4247 14.34217724417804
IRIDIUM 166             
1 43570U 18061B   26199.06294552  .00000018  00000+0 -62222-6 0  9994
2 43570  86.3937  43.8319 0002284  89.7406 270.4052 14.34217676417828
IRIDIUM 158             
1 43571U 18061C   26199.03123185  .00000038  00000+0  64705-5 0  9993
2 43571  86.3938  43.8546 0002106  88.5076 271.6361 14.34217842417781
IRIDIUM 165             
1 43572U 18061D   26199.12637204  .00000058  00000+0  13566-4 0  9996
2 43572  86.3941  43.8625 0002283  90.1141 270.0316 14.34217667417825
IRIDIUM 155             
1 43573U 18061E   26199.08831568  .00000024  00000+0  13689-5 0  9991
2 43573  86.3936  43.7455 0002143  90.7984 269.3457 14.34217546417784
IRIDIUM 154             
1 43574U 18061F   26199.27859348  .00000020  00000+0  22341-6 0  9991
2 43574  86.3939  43.8012 0002307  89.7275 270.4186 14.34217461417868
IRIDIUM 163             
1 43575U 18061G   26199.12002930  .00000027  00000+0  26889-5 0  9990
2 43575  86.3937  43.7818 0002124  86.8282 273.3157 14.34217381417819
IRIDIUM 156             
1 43576U 18061H   26199.09465694  .00000087  00000+0  24059-4 0  9999
2 43576  86.3937  43.7996 0002114  93.5976 266.5462 14.34218395417809
IRIDIUM 164             
1 43577U 18061J   26199.07563062  .00000059  00000+0  13904-4 0  9992
2 43577  86.3938  43.8487 0002364  89.2647 270.8820 14.34218343417844
